[
    {
        "Altitude(m)": 561736.5881488088,
        "Argument of Periapsis(deg)": 0.019868973332140504,
        "Eccentricity": 0.0,
        "Inclination(deg)": 53.0,
        "Latitude(deg)": -28.01374466020352,
        "Longitude(deg)": 156.11727858394102,
        "Mean Anomaly(deg)": 215.72937860273277,
        "RAAN(deg)": 54.97043010558406,
        "Satellite Name": "Starlink Shell 1 253",
        "Satellite Number": 253,
        "Semi-Major Axis(m)": 6931778.249405717,
        "Time(s)": 570
    },
    {
        "Altitude(m)": 561910.6021675577,
        "Argument of Periapsis(deg)": 0.02021755181165174,
        "Eccentricity": 0.0,
        "Inclination(deg)": 53.0,
        "Latitude(deg)": -28.4732547918745,
        "Longitude(deg)": 156.55974941919098,
        "Mean Anomaly(deg)": 216.3562098062895,
        "RAAN(deg)": 54.96991133550658,
        "Satellite Name": "Starlink Shell 1 253",
        "Satellite Number": 253,
        "Semi-Major Axis(m)": 6931778.249405717,
        "Time(s)": 580
    },
    {
        "Altitude(m)": 562084.997497249,
        "Argument of Periapsis(deg)": 0.020566130291162974,
        "Eccentricity": 0.0,
        "Inclination(deg)": 53.0,
        "Latitude(deg)": -28.930984939065603,
        "Longitude(deg)": 157.00639857060142,
        "Mean Anomaly(deg)": 216.9830410098462,
        "RAAN(deg)": 54.969392565429104,
        "Satellite Name": "Starlink Shell 1 253",
        "Satellite Number": 253,
        "Semi-Major Axis(m)": 6931778.249405717,
        "Time(s)": 590
    },
    {
        "Altitude(m)": 562259.7093000114,
        "Argument of Periapsis(deg)": 0.020914708770674213,
        "Eccentricity": 0.0,
        "Inclination(deg)": 53.0,
        "Latitude(deg)": -29.386886734606207,
        "Longitude(deg)": 157.4573264932981,
        "Mean Anomaly(deg)": 217.60987221340292,
        "RAAN(deg)": 54.96887379535163,
        "Satellite Name": "Starlink Shell 1 253",
        "Satellite Number": 253,
        "Semi-Major Axis(m)": 6931778.249405717,
        "Time(s)": 600
    },
    {
        "Altitude(m)": 562434.6724496912,
        "Argument of Periapsis(deg)": 0.021263287250185448,
        "Eccentricity": 0.0,
        "Inclination(deg)": 53.0,
        "Latitude(deg)": -29.840910734322907,
        "Longitude(deg)": 157.91263493703,
        "Mean Anomaly(deg)": 218.23670341695959,
        "RAAN(deg)": 54.968355025274164,
        "Satellite Name": "Starlink Shell 1 253",
        "Satellite Number": 253,
        "Semi-Major Axis(m)": 6931778.249405717,
        "Time(s)": 610
    },
    {
        "Altitude(m)": 562609.8215610728,
        "Argument of Periapsis(deg)": 0.021611865729696686,
        "Eccentricity": 0.0,
        "Inclination(deg)": 53.0,
        "Latitude(deg)": -30.293006386471355,
        "Longitude(deg)": 158.37242744273902,
        "Mean Anomaly(deg)": 218.8635346205163,
        "RAAN(deg)": 54.96783625519669,
        "Satellite Name": "Starlink Shell 1 253",
        "Satellite Number": 253,
        "Semi-Major Axis(m)": 6931778.249405717,
        "Time(s)": 620
    },
    {
        "Altitude(m)": 562785.0910191913,
        "Argument of Periapsis(deg)": 0.02196044420920792,
        "Eccentricity": 0.0,
        "Inclination(deg)": 53.0,
        "Latitude(deg)": -30.74312200078216,
        "Longitude(deg)": 158.83680815452314,
        "Mean Anomaly(deg)": 219.49036582407302,
        "RAAN(deg)": 54.96731748511921,
        "Satellite Name": "Starlink Shell 1 253",
        "Satellite Number": 253,
        "Semi-Major Axis(m)": 6931778.249405717,
        "Time(s)": 630
    },
    {
        "Altitude(m)": 562960.4150087589,
        "Argument of Periapsis(deg)": 0.02230902268871916,
        "Eccentricity": 0.0,
        "Inclination(deg)": 53.0,
        "Latitude(deg)": -31.19120471715971,
        "Longitude(deg)": 159.3058831491203,
        "Mean Anomaly(deg)": 220.11719702762974,
        "RAAN(deg)": 54.96679871504175,
        "Satellite Name": "Starlink Shell 1 253",
        "Satellite Number": 253,
        "Semi-Major Axis(m)": 6931778.249405717,
        "Time(s)": 640
    },
    {
        "Altitude(m)": 563135.7275436573,
        "Argument of Periapsis(deg)": 0.022657601168230398,
        "Eccentricity": 0.0,
        "Inclination(deg)": 53.0,
        "Latitude(deg)": -31.637200474064805,
        "Longitude(deg)": 159.77975923969205,
        "Mean Anomaly(deg)": 220.7440282311865,
        "RAAN(deg)": 54.96627994496427,
        "Satellite Name": "Starlink Shell 1 253",
        "Satellite Number": 253,
        "Semi-Major Axis(m)": 6931778.249405717,
        "Time(s)": 650
    },
    {
        "Altitude(m)": 563310.9624965241,
        "Argument of Periapsis(deg)": 0.023006179647741636,
        "Eccentricity": 0.0,
        "Inclination(deg)": 53.0,
        "Latitude(deg)": -32.08105397662729,
        "Longitude(deg)": 160.25854445599748,
        "Mean Anomaly(deg)": 221.37085943474318,
        "RAAN(deg)": 54.965761174886794,
        "Satellite Name": "Starlink Shell 1 253",
        "Satellite Number": 253,
        "Semi-Major Axis(m)": 6931778.249405717,
        "Time(s)": 660
    },
    {
        "Altitude(m)": 563486.0536283624,
        "Argument of Periapsis(deg)": 0.023354758127252868,
        "Eccentricity": 0.0,
        "Inclination(deg)": 53.0,
        "Latitude(deg)": -32.52270866453728,
        "Longitude(deg)": 160.74234851963868,
        "Mean Anomaly(deg)": 221.99769063829987,
        "RAAN(deg)": 54.96524240480932,
        "Satellite Name": "Starlink Shell 1 253",
        "Satellite Number": 253,
        "Semi-Major Axis(m)": 6931778.249405717,
        "Time(s)": 670
    },
    {
        "Altitude(m)": 563660.9346182251,
        "Argument of Periapsis(deg)": 0.023703336606764106,
        "Eccentricity": 0.0,
        "Inclination(deg)": 53.0,
        "Latitude(deg)": -32.96210667976366,
        "Longitude(deg)": 161.2312818011354,
        "Mean Anomaly(deg)": 222.62452184185662,
        "RAAN(deg)": 54.964723634731854,
        "Satellite Name": "Starlink Shell 1 253",
        "Satellite Number": 253,
        "Semi-Major Axis(m)": 6931778.249405717,
        "Time(s)": 680
    },
    {
        "Altitude(m)": 563835.5390928793,
        "Argument of Periapsis(deg)": 0.024051915086275345,
        "Eccentricity": 0.0,
        "Inclination(deg)": 53.0,
        "Latitude(deg)": -33.39918883416632,
        "Longitude(deg)": 161.7254557841837,
        "Mean Anomaly(deg)": 223.25135304541337,
        "RAAN(deg)": 54.96420486465438,
        "Satellite Name": "Starlink Shell 1 253",
        "Satellite Number": 253,
        "Semi-Major Axis(m)": 6931778.249405717,
        "Time(s)": 690
    },
    {
        "Altitude(m)": 564009.8006565485,
        "Argument of Periapsis(deg)": 0.024400493565786583,
        "Eccentricity": 0.0,
        "Inclination(deg)": 53.0,
        "Latitude(deg)": -33.83389457706718,
        "Longitude(deg)": 162.2249835238205,
        "Mean Anomaly(deg)": 223.87818424897006,
        "RAAN(deg)": 54.9636860945769,
        "Satellite Name": "Starlink Shell 1 253",
        "Satellite Number": 253,
        "Semi-Major Axis(m)": 6931778.249405717,
        "Time(s)": 700
    },
    {
        "Altitude(m)": 564183.6529205802,
        "Argument of Periapsis(deg)": 0.024749072045297815,
        "Eccentricity": 0.0,
        "Inclination(deg)": 53.0,
        "Latitude(deg)": -34.26616196285159,
        "Longitude(deg)": 162.72997858518968,
        "Mean Anomaly(deg)": 224.50501545252678,
        "RAAN(deg)": 54.96316732449943,
        "Satellite Name": "Starlink Shell 1 253",
        "Satellite Number": 253,
        "Semi-Major Axis(m)": 6931778.249405717,
        "Time(s)": 710
    },
    {
        "Altitude(m)": 564357.02953317,
        "Argument of Periapsis(deg)": 0.025097650524809053,
        "Eccentricity": 0.0,
        "Inclination(deg)": 53.0,
        "Latitude(deg)": -34.695927618686945,
        "Longitude(deg)": 163.24055548820905,
        "Mean Anomaly(deg)": 225.13184665608347,
        "RAAN(deg)": 54.96264855442196,
        "Satellite Name": "Starlink Shell 1 253",
        "Satellite Number": 253,
        "Semi-Major Axis(m)": 6931778.249405717,
        "Time(s)": 720
    },
    {
        "Altitude(m)": 564529.8642089799,
        "Argument of Periapsis(deg)": 0.02544622900432029,
        "Eccentricity": 0.0,
        "Inclination(deg)": 53.0,
        "Latitude(deg)": -35.123126712448176,
        "Longitude(deg)": 163.75683014479606,
        "Mean Anomaly(deg)": 225.7586778596402,
        "RAAN(deg)": 54.962129784344484,
        "Satellite Name": "Starlink Shell 1 253",
        "Satellite Number": 253,
        "Semi-Major Axis(m)": 6931778.249405717,
        "Time(s)": 730
    },
    {
        "Altitude(m)": 564702.0907587894,
        "Argument of Periapsis(deg)": 0.02579480748383153,
        "Eccentricity": 0.0,
        "Inclination(deg)": 53.0,
        "Latitude(deg)": -35.54769292094687,
        "Longitude(deg)": 164.27891877529436,
        "Mean Anomaly(deg)": 226.38550906319696,
        "RAAN(deg)": 54.961611014267014,
        "Satellite Name": "Starlink Shell 1 253",
        "Satellite Number": 253,
        "Semi-Major Axis(m)": 6931778.249405717,
        "Time(s)": 740
    },
    {
        "Altitude(m)": 564873.6431190362,
        "Argument of Periapsis(deg)": 0.026143385963342765,
        "Eccentricity": 0.0,
        "Inclination(deg)": 53.0,
        "Latitude(deg)": -35.96955839857783,
        "Longitude(deg)": 164.80693832933832,
        "Mean Anomaly(deg)": 227.01234026675365,
        "RAAN(deg)": 54.961092244189544,
        "Satellite Name": "Starlink Shell 1 253",
        "Satellite Number": 253,
        "Semi-Major Axis(m)": 6931778.249405717,
        "Time(s)": 750
    }
]